#aV2011 12 24  0  0   .00000000      96 DD+AD WGS84 FIT  NGA
## 1667 518400.00000000   900.00000000 55919  .0000000000000
+   31     1  2  3  4  5  6  7  8  9 10 11 12 13 14 15 16 17
+         18 19 20 21 22 23 25 26 27 28 29 30 31 32  0  0  0
+          0  0  0  0  0  0  0  0  0  0  0  0  0  0  0  0  0
+          0  0  0  0  0  0  0  0  0  0  0  0  0  0  0  0  0
+          0  0  0  0  0  0  0  0  0  0  0  0  0  0  0  0  0
++         0  0  0  0  0  0  0  0  0  0  0  0  0  0  0  0  0
++         0  0  0  0  0  0  0  0  0  0  0  0  0  0  0  0  0
++         0  0  0  0  0  0  0  0  0  0  0  0  0  0  0  0  0
++         0  0  0  0  0  0  0  0  0  0  0  0  0  0  0  0  0
++         0  0  0  0  0  0  0  0  0  0  0  0  0  0  0  0  0
%c cc cc ccc ccc cccc cccc cccc cccc ccccc ccccc ccccc ccccc
%c cc cc ccc ccc cccc cccc cccc cccc ccccc ccccc ccccc ccccc
%f  0.0000000  0.000000000  0.00000000000  0.000000000000000
%f  0.0000000  0.000000000  0.00000000000  0.000000000000000
%i    0    0    0    0      0      0      0      0         0
%i    0    0    0    0      0      0      0      0         0
/*      NGA, ST. LOUIS,MO.                                  
/*   EPHEMERIS COMPUTED FROM  3 DAYS OF DATA                
/* CCCCCCCCCCCCCCCCCCCCCCCCCCCCCCCCCCCCCCCCCCCCCCCCCCCCCCCCC
/* CCCCCCCCCCCCCCCCCCCCCCCCCCCCCCCCCCCCCCCCCCCCCCCCCCCCCCCCC
*  2011 12 24  6 45   .00000000                                                 
P  1  -4402.703742 -14620.598200 -21749.913932    154.656935                    
V  1  26827.297775  -6400.539295  -1118.547604       .151307                    
P  2 -18831.812245  13847.012594  12208.346850    371.596648                    
V  2 -15937.722877    574.553562 -25910.477269       .016741                    
P  3  10580.965151 -22289.164391   8991.757183    812.660065                    
V  3   1659.870801  12646.235184  28277.002140       .053098                    
P  4 -25964.211996   6355.127596    584.246167     42.389901                    
V  4  -1723.062193  -2969.288973 -30998.429835       .112261                    
P  5  -6356.827265  15019.468968  20917.973029   -261.805104                    
V  5 -18774.110070 -18957.811398   8020.111476      -.047762                    
P  6  14102.554868 -18623.390980  12520.356807     18.185381                    
V  6   -864.977273  16111.823284  25470.415241       .036540                    
P  7 -18935.614431  -7774.085492  17078.089306     45.293090                    
V  7  20754.772836  -5826.209645  20148.530875       .024157                    
P  8 -25623.274122  -1772.273260   7912.702176       .233901                    
V  8   9555.067567  -2355.030198  30087.604442       .000619                    
P  9    -79.110769  15267.772907 -22284.691294    127.077868                    
V  9 -26206.139914   6131.851294   4377.724590       .025796                    
P 10 -19708.862706  -3286.321462  17449.637597    -23.225179                    
V 10 -13666.128696 -17984.660757 -18177.299292      -.013185                    
P 11   1138.215746 -18452.832097 -19347.355223   -216.121144                    
V 11  22289.780952  -9660.382939  11068.186704      -.037114                    
P 12   9289.875814  22147.132167 -11524.437966     42.438281                    
V 12 -11018.635507  -9685.145991 -27300.842316       .022336                    
P 13  -8135.030665 -15143.517031  20086.431420    234.594402                    
V 13  10541.217988 -23525.092925 -13453.454047      -.020722                    
P 14  16325.057937  -5116.282289 -20100.859009    187.088529                    
V 14  -8235.699565  24578.690097 -12966.090770       .016087                    
P 15  -3073.297545  25648.164980  -5704.817096    -96.068654                    
V 15  -5171.911791   6117.048077  30461.281593       .008303                    
P 16   7334.665419 -13675.232461  21526.013746   -215.459273                    
V 16  18217.738983  20333.295412   7005.585410      -.018631                    
P 17 -16186.926692   2744.723959 -20672.122631    158.808975                    
V 17   7784.937224 -25511.534319  -9650.339072      -.021766                    
P 18  20182.986270  16711.788936  -5049.712320    173.354462                    
V 18   2047.600306   7313.366739  29975.596063       .018268                    
P 19   7379.098680 -25038.464321  -3704.475741   -218.340764                    
V 19   4673.826638  -3187.681752  31503.050171      -.039045                    
P 20 -10921.203065 -21905.821454 -10563.849830     58.618897                    
V 20  11604.815842   7068.928456 -26987.097914       .007396                    
P 21  22357.774394   5793.244185  14066.979655   -192.903188                    
V 21 -16069.820138   5911.524906  23277.453129      -.024744                    
P 22  20280.828662   4076.356342 -16544.520087    143.071764                    
V 22  12527.583176  17505.898118  19354.445364      -.001452                    
P 23  -2655.940997 -22521.624377  13553.105649    248.132835                    
V 23   7608.055010 -15728.396201 -25045.669239      -.033640                    
P 25  17147.436934  20203.804824  -2101.273560     30.506567                    
V 25  -3686.197776   -136.766512 -31719.952209       .004605                    
P 26 -12463.079543  22588.359662   4763.461056   -272.939389                    
V 26    331.783119  -7269.572886  31780.506757      -.139499                    
P 27  -7636.442851  15503.766882 -19393.735919    338.995049                    
V 27 -25560.631487   5553.453166  14453.839672       .039125                    
P 28 -20155.984345  -8523.551381 -14680.620947     96.002046                    
V 28 -11262.642035 -15974.967534  23625.430857       .035489                    
P 29   8479.232000  16253.845513  19296.091177    268.818381                    
V 29  -9333.148323  22522.958405 -14882.768068       .033431                    
P 30  14960.140652  -6201.185478  20699.268108     13.388474                    
V 30  19774.890759  18561.995252  -8576.393207      -.123168                    
P 31  25143.444156  -8081.387866   4005.199634    186.513320                    
V 31   5087.485935    918.462960 -31502.542687       .049304                    
P 32  -2715.462606 -21448.116965 -15494.630211   -381.955406                    
V 32  13733.358875  14578.733921 -21793.461035      -.058414                    
EOF
